{"type": "FeatureCollection", "features": [{"type": "Feature", "properties": {"norad_id": 24876, "name": "GPS BIIR-2  (PRN 13)", "group": "gnss", "lat": 43.148795703195475, "lon": 144.91527904384682, "alt_km": 19920.192389524123, "timestamp": "2025-12-20T18:51:31.956526+00:00", "meta": {"OBJECT_NAME": "GPS BIIR-2  (PRN 13)", "OBJECT_ID": "1997-035A", "EPOCH": "2025-12-20T05:04:22.923552", "MEAN_MOTION": 2.0056375, "ECCENTRICITY": 0.00968119, "INCLINATION": 55.8989, "RA_OF_ASC_NODE": 105.5767, "ARG_OF_PERICENTER": 56.9717, "MEAN_ANOMALY": 303.9301, "EPHEMERIS_TYPE": 0, "CLASSIFICATION_TYPE": "U", "NORAD_CAT_ID": 24876, "ELEMENT_SET_NO": 999, "REV_AT_EPOCH": 20836, "BSTAR": 0, "MEAN_MOTION_DOT": -8e-08, "MEAN_MOTION_DDOT": 0}, "tle": {"line1": "1 24876U 97035A   25354.21137643 -.00000008  00000+0  00000+0 0  9994", "line2": "2 24876  55.8989 105.5767 0096811  56.9717 303.9301  2.00563750208360"}}, "geometry": {"type": "Point", "coordinates": [144.91527904384682, 43.148795703195475]}}, {"type": "Feature", "properties": {"norad_id": 26360, "name": "GPS BIIR-4  (PRN 20)", "group": "gnss", "lat": 26.327754252421524, "lon": -173.7098565084987, "alt_km": 20188.253711520058, "timestamp": "2025-12-20T18:51:31.956571+00:00", "meta": {"OBJECT_NAME": "GPS BIIR-4  (PRN 20)", "OBJECT_ID": "2000-025A", "EPOCH": "2025-12-20T02:15:34.027776", "MEAN_MOTION": 2.00567172, "ECCENTRICITY": 0.00388878, "INCLINATION": 55.0495, "RA_OF_ASC_NODE": 26.5404, "ARG_OF_PERICENTER": 242.6813, "MEAN_ANOMALY": 125.6074, "EPHEMERIS_TYPE": 0, "CLASSIFICATION_TYPE": "U", "NORAD_CAT_ID": 26360, "ELEMENT_SET_NO": 999, "REV_AT_EPOCH": 18768, "BSTAR": 0, "MEAN_MOTION_DOT": -6.6e-07, "MEAN_MOTION_DDOT": 0}, "tle": {"line1": "1 26360U 00025A   25354.09414384 -.00000066  00000+0  00000+0 0  9997", "line2": "2 26360  55.0495  26.5404 0038887 242.6813 125.6074  2.00567172187683"}}, "geometry": {"type": "Point", "coordinates": [-173.7098565084987, 26.327754252421524]}}, {"type": "Feature", "properties": {"norad_id": 26407, "name": "GPS BIIR-5  (PRN 22)", "group": "gnss", "lat": -9.555443785984188, "lon": -144.53665212955445, "alt_km": 19951.1552980818, "timestamp": "2025-12-20T18:51:31.956590+00:00", "meta": {"OBJECT_NAME": "GPS BIIR-5  (PRN 22)", "OBJECT_ID": "2000-040A", "EPOCH": "2025-12-20T01:19:00.172704", "MEAN_MOTION": 2.0056811, "ECCENTRICITY": 0.01256107, "INCLINATION": 54.8892, "RA_OF_ASC_NODE": 222.2781, "ARG_OF_PERICENTER": 301.9338, "MEAN_ANOMALY": 237.6446, "EPHEMERIS_TYPE": 0, "CLASSIFICATION_TYPE": "U", "NORAD_CAT_ID": 26407, "ELEMENT_SET_NO": 999, "REV_AT_EPOCH": 18635, "BSTAR": 0, "MEAN_MOTION_DOT": 7.4e-07, "MEAN_MOTION_DDOT": 0}, "tle": {"line1": "1 26407U 00040A   25354.05486311  .00000074  00000+0  00000+0 0  9999", "line2": "2 26407  54.8892 222.2781 0125610 301.9338 237.6446  2.00568110186351"}}, "geometry": {"type": "Point", "coordinates": [-144.53665212955445, -9.555443785984188]}}, {"type": "Feature", "properties": {"norad_id": 27663, "name": "GPS BIIR-8  (PRN 16)", "group": "gnss", "lat": 42.1699338032623, "lon": 2.5571371452630096, "alt_km": 20056.072806603694, "timestamp": "2025-12-20T18:51:31.956604+00:00", "meta": {"OBJECT_NAME": "GPS BIIR-8  (PRN 16)", "OBJECT_ID": "2003-005A", "EPOCH": "2025-12-20T15:07:28.763328", "MEAN_MOTION": 2.00570507, "ECCENTRICITY": 0.01477423, "INCLINATION": 54.9216, "RA_OF_ASC_NODE": 222.0644, "ARG_OF_PERICENTER": 51.9121, "MEAN_ANOMALY": 319.0535, "EPHEMERIS_TYPE": 0, "CLASSIFICATION_TYPE": "U", "NORAD_CAT_ID": 27663, "ELEMENT_SET_NO": 999, "REV_AT_EPOCH": 16773, "BSTAR": 0, "MEAN_MOTION_DOT": 7.3e-07, "MEAN_MOTION_DDOT": 0}, "tle": {"line1": "1 27663U 03005A   25354.63019402  .00000073  00000+0  00000+0 0  9994", "line2": "2 27663  54.9216 222.0644 0147742  51.9121 319.0535  2.00570507167733"}}, "geometry": {"type": "Point", "coordinates": [2.5571371452630096, 42.1699338032623]}}, {"type": "Feature", "properties": {"norad_id": 28190, "name": "GPS BIIR-11 (PRN 19)", "group": "gnss", "lat": -52.996412005282, "lon": -145.40543480859546, "alt_km": 20308.160595443118, "timestamp": "2025-12-20T18:51:31.956618+00:00", "meta": {"OBJECT_NAME": "GPS BIIR-11 (PRN 19)", "OBJECT_ID": "2004-009A", "EPOCH": "2025-12-20T02:10:39.105696", "MEAN_MOTION": 2.00560582, "ECCENTRICITY": 0.01084506, "INCLINATION": 54.979, "RA_OF_ASC_NODE": 282.9228, "ARG_OF_PERICENTER": 167.7566, "MEAN_ANOMALY": 332.1268, "EPHEMERIS_TYPE": 0, "CLASSIFICATION_TYPE": "U", "NORAD_CAT_ID": 28190, "ELEMENT_SET_NO": 999, "REV_AT_EPOCH": 15935, "BSTAR": 0, "MEAN_MOTION_DOT": -3.4e-07, "MEAN_MOTION_DDOT": 0}, "tle": {"line1": "1 28190U 04009A   25354.09073039 -.00000034  00000+0  00000+0 0  9999", "line2": "2 28190  54.9790 282.9228 0108450 167.7566 332.1268  2.00560582159351"}}, "geometry": {"type": "Point", "coordinates": [-145.40543480859546, -52.996412005282]}}, {"type": "Feature", "properties": {"norad_id": 28474, "name": "GPS BIIR-13 (PRN 02)", "group": "gnss", "lat": -13.761396217242977, "lon": -37.72481544748065, "alt_km": 19802.877376441756, "timestamp": "2025-12-20T18:51:31.956631+00:00", "meta": {"OBJECT_NAME": "GPS BIIR-13 (PRN 02)", "OBJECT_ID": "2004-045A", "EPOCH": "2025-12-20T07:31:09.755904", "MEAN_MOTION": 2.00569954, "ECCENTRICITY": 0.01709047, "INCLINATION": 55.2369, "RA_OF_ASC_NODE": 332.1012, "ARG_OF_PERICENTER": 309.5849, "MEAN_ANOMALY": 51.3395, "EPHEMERIS_TYPE": 0, "CLASSIFICATION_TYPE": "U", "NORAD_CAT_ID": 28474, "ELEMENT_SET_NO": 999, "REV_AT_EPOCH": 15484, "BSTAR": 0, "MEAN_MOTION_DOT": -7.7e-07, "MEAN_MOTION_DDOT": 0}, "tle": {"line1": "1 28474U 04045A   25354.31330736 -.00000077  00000+0  00000+0 0  9996", "line2": "2 28474  55.2369 332.1012 0170904 309.5849  51.3395  2.00569954154846"}}, "geometry": {"type": "Point", "coordinates": [-37.72481544748065, -13.761396217242977]}}, {"type": "Feature", "properties": {"norad_id": 28874, "name": "GPS BIIRM-1 (PRN 17)", "group": "gnss", "lat": -44.382995962777734, "lon": -122.7975869016208, "alt_km": 19839.983445626796, "timestamp": "2025-12-20T18:51:31.956644+00:00", "meta": {"OBJECT_NAME": "GPS BIIRM-1 (PRN 17)", "OBJECT_ID": "2005-038A", "EPOCH": "2025-12-20T01:24:11.888352", "MEAN_MOTION": 2.00578006, "ECCENTRICITY": 0.01314124, "INCLINATION": 55.0254, "RA_OF_ASC_NODE": 280.4063, "ARG_OF_PERICENTER": 293.7176, "MEAN_ANOMALY": 202.3277, "EPHEMERIS_TYPE": 0, "CLASSIFICATION_TYPE": "U", "NORAD_CAT_ID": 28874, "ELEMENT_SET_NO": 999, "REV_AT_EPOCH": 14824, "BSTAR": 0, "MEAN_MOTION_DOT": -3e-07, "MEAN_MOTION_DDOT": 0}, "tle": {"line1": "1 28874U 05038A   25354.05847093 -.00000030  00000+0  00000+0 0  9992", "line2": "2 28874  55.0254 280.4063 0131412 293.7176 202.3277  2.00578006148242"}}, "geometry": {"type": "Point", "coordinates": [-122.7975869016208, -44.382995962777734]}}, {"type": "Feature", "properties": {"norad_id": 28899, "name": "INMARSAT 4-F2 (SOUTHPAN/PRN 122)", "group": "gnss", "lat": 4.5107945905632745, "lon": 156.04170915634975, "alt_km": 35790.055791082596, "timestamp": "2025-12-20T18:51:31.956657+00:00", "meta": {"OBJECT_NAME": "INMARSAT 4-F2 (SOUTHPAN/PRN 122)", "OBJECT_ID": "2005-044A", "EPOCH": "2025-12-20T11:40:38.786592", "MEAN_MOTION": 1.00271259, "ECCENTRICITY": 0.00024484, "INCLINATION": 4.8614, "RA_OF_ASC_NODE": 43.7041, "ARG_OF_PERICENTER": 227.2511, "MEAN_ANOMALY": 137.0275, "EPHEMERIS_TYPE": 0, "CLASSIFICATION_TYPE": "U", "NORAD_CAT_ID": 28899, "ELEMENT_SET_NO": 999, "REV_AT_EPOCH": 7373, "BSTAR": 0, "MEAN_MOTION_DOT": -2.4e-06, "MEAN_MOTION_DDOT": 0}, "tle": {"line1": "1 28899U 05044A   25354.48656003 -.00000240  00000+0  00000+0 0  9995", "line2": "2 28899   4.8614  43.7041 0002448 227.2511 137.0275  1.00271259 73730"}}, "geometry": {"type": "Point", "coordinates": [156.04170915634975, 4.5107945905632745]}}, {"type": "Feature", "properties": {"norad_id": 29486, "name": "GPS BIIRM-2 (PRN 31)", "group": "gnss", "lat": -19.639832152848726, "lon": -6.9336565527137894, "alt_km": 20436.883652281205, "timestamp": "2025-12-20T18:51:31.956670+00:00", "meta": {"OBJECT_NAME": "GPS BIIRM-2 (PRN 31)", "OBJECT_ID": "2006-042A", "EPOCH": "2025-12-20T12:29:34.727712", "MEAN_MOTION": 2.0055388, "ECCENTRICITY": 0.01073051, "INCLINATION": 54.695, "RA_OF_ASC_NODE": 158.4322, "ARG_OF_PERICENTER": 52.1429, "MEAN_ANOMALY": 320.0368, "EPHEMERIS_TYPE": 0, "CLASSIFICATION_TYPE": "U", "NORAD_CAT_ID": 29486, "ELEMENT_SET_NO": 999, "REV_AT_EPOCH": 14081, "BSTAR": 0, "MEAN_MOTION_DOT": 6.8e-07, "MEAN_MOTION_DDOT": 0}, "tle": {"line1": "1 29486U 06042A   25354.52054083  .00000068  00000+0  00000+0 0  9999", "line2": "2 29486  54.6950 158.4322 0107305  52.1429 320.0368  2.00553880140811"}}, "geometry": {"type": "Point", "coordinates": [-6.9336565527137894, -19.639832152848726]}}, {"type": "Feature", "properties": {"norad_id": 29601, "name": "GPS BIIRM-3 (PRN 12)", "group": "gnss", "lat": -54.16313753861036, "lon": 117.25620348485278, "alt_km": 20419.481619586517, "timestamp": "2025-12-20T18:51:31.956683+00:00", "meta": {"OBJECT_NAME": "GPS BIIRM-3 (PRN 12)", "OBJECT_ID": "2006-052A", "EPOCH": "2025-12-19T22:13:29.754912", "MEAN_MOTION": 2.00574126, "ECCENTRICITY": 0.00879643, "INCLINATION": 54.9691, "RA_OF_ASC_NODE": 221.1129, "ARG_OF_PERICENTER": 87.52, "MEAN_ANOMALY": 273.5849, "EPHEMERIS_TYPE": 0, "CLASSIFICATION_TYPE": "U", "NORAD_CAT_ID": 29601, "ELEMENT_SET_NO": 999, "REV_AT_EPOCH": 13981, "BSTAR": 0, "MEAN_MOTION_DOT": 7.6e-07, "MEAN_MOTION_DDOT": 0}, "tle": {"line1": "1 29601U 06052A   25353.92603883  .00000076  00000+0  00000+0 0  9999", "line2": "2 29601  54.9691 221.1129 0087964  87.5200 273.5849  2.00574126139815"}}, "geometry": {"type": "Point", "coordinates": [117.25620348485278, -54.16313753861036]}}]}